{
"type": "FeatureCollection",
"name": "grv_cluster",
"crs": { "type": "name", "properties": { "name": "urn:ogc:def:crs:OGC:1.3:CRS84" } },
"features": [
{ "type": "Feature", "properties": { "AREA": 0.07829, "PERIMETER": 1.91993, "BASIN_": 92.0, "BASIN_ID": 158.0, "BOUNDC_": 5.0, "BOUNDC_ID": 1.0, "BOUND": 99.0, "BASIN_GEJO": 173.0, "ITEM001": 120.0, "BASIN_1": "2GB", "BASIN_2": "G", "BASIN_3": "B", "GEJO": 1.0, "MAIN_BASIN": "2", "Shape_Leng": 214487.41888700001, "Shape_Area": 947655185.94399989, "layer": "Aberdare Cluster", "path": "/Users/eliasotieno/Documents/Clusters_v2/Aberdare Cluster/Aberdare Cluster.shp" }, "geometry": { "type": "MultiPolygon", "coordinates": [ [ [ [ 36.622928584064866, -0.401604502472763 ], [ 36.627887690868597, -0.40621480306464 ], [ 36.632179224419154, -0.410062015172747 ], [ 36.6333884833954, -0.411556362891501 ], [ 36.633804285966633, -0.412414848771683 ], [ 36.634471858444456, -0.41330510332902 ], [ 36.635330164481367, -0.414735853866064 ], [ 36.636249507026214, -0.416484593733581 ], [ 36.637268031121778, -0.418010740356257 ], [ 36.640861475681241, -0.422557502853204 ], [ 36.645629848070818, -0.428375929727107 ], [ 36.64693447375268, -0.429902196558523 ], [ 36.647857630521344, -0.431205660370801 ], [ 36.648460352644811, -0.432032346653238 ], [ 36.648811304941354, -0.433113426319032 ], [ 36.649002039735841, -0.434003681001143 ], [ 36.648967708264138, -0.434862166906367 ], [ 36.648937190000048, -0.43661084810283 ], [ 36.6487464550314, -0.44064885349013 ], [ 36.648914302154573, -0.447202474592269 ], [ 36.649032558588758, -0.451745421284491 ], [ 36.649002039663841, -0.453366876390699 ], [ 36.64900204001831, -0.454352528252545 ], [ 36.649097407303159, -0.455274612124606 ], [ 36.649349178437724, -0.456387400918881 ], [ 36.649795498004778, -0.45757976160682 ], [ 36.650909388987671, -0.458422303071495 ], [ 36.651702846107625, -0.458581312475506 ], [ 36.652942621773128, -0.458549469387246 ], [ 36.653896297035466, -0.458517670809274 ], [ 36.655040706017942, -0.458517670591928 ], [ 36.6559943799165, -0.458613097130421 ], [ 36.656948054417924, -0.458835660638845 ], [ 36.65780636118226, -0.459185362450595 ], [ 36.658603632577872, -0.459630489257295 ], [ 36.659667933996737, -0.46037770791186 ], [ 36.660510981929484, -0.461252034091981 ], [ 36.661243403784489, -0.462078719559655 ], [ 36.662036861002392, -0.463207437937258 ], [ 36.662513698291704, -0.46439978487882 ], [ 36.66286465062074, -0.465544342705583 ], [ 36.663467372371827, -0.467388540670513 ], [ 36.664039576736045, -0.469041853993216 ], [ 36.664325678627748, -0.469773173056595 ], [ 36.664771999203808, -0.470758796465991 ], [ 36.665153467897326, -0.471521853549254 ], [ 36.665309870938231, -0.472571104717521 ], [ 36.665405237467112, -0.473397791263826 ], [ 36.665565455429274, -0.474415213351551 ], [ 36.665500605357785, -0.475957288431603 ], [ 36.6655349382849, -0.477054237547327 ], [ 36.665248835809685, -0.477912694304193 ], [ 36.664897884383848, -0.478993713189232 ], [ 36.664485896265234, -0.480170161151491 ], [ 36.663879358903237, -0.481441915029301 ], [ 36.663402522074492, -0.482236803315479 ], [ 36.66267391486533, -0.483286052339285 ], [ 36.661720240132873, -0.484398872487623 ], [ 36.660415613730123, -0.486147612114803 ], [ 36.659421886792956, -0.488349600601213 ], [ 36.659088100113586, -0.489478975956455 ], [ 36.658904993788283, -0.490330845106551 ], [ 36.658763849386403, -0.491377980132235 ], [ 36.658588374432703, -0.493235111784526 ], [ 36.658782924254965, -0.496396095288162 ], [ 36.659812891896131, -0.498727470556372 ], [ 36.66006847687558, -0.500229001504323 ], [ 36.65922161387951, -0.501424788948046 ], [ 36.657710993685399, -0.502804279384606 ], [ 36.656505549389031, -0.504128932972207 ], [ 36.656110729543997, -0.505026637813956 ], [ 36.655979120656582, -0.505979120771025 ], [ 36.656043970632901, -0.507884084838032 ], [ 36.656092799826261, -0.508858943451496 ], [ 36.656154597863697, -0.509832798960454 ], [ 36.656265223981315, -0.511584460831305 ], [ 36.656593288163691, -0.513467549932652 ], [ 36.65670391432937, -0.514255701779539 ], [ 36.656986202470954, -0.515416144745936 ], [ 36.657447779660934, -0.516467213852761 ], [ 36.658016169213965, -0.517167865942882 ], [ 36.65867229811515, -0.517912387430342 ], [ 36.659263576008009, -0.518788159122758 ], [ 36.660404169717467, -0.520320833769773 ], [ 36.661277736312577, -0.52207261309998 ], [ 36.661605800259714, -0.523125319499274 ], [ 36.662067377665366, -0.524721979695939 ], [ 36.662460291456668, -0.526035725736103 ], [ 36.662460291484201, -0.527042925016046 ], [ 36.662372553826174, -0.52805012541492 ], [ 36.662284816303725, -0.529057383537354 ], [ 36.66206737831606, -0.529801785697056 ], [ 36.661869013776588, -0.530633866640449 ], [ 36.661781276143948, -0.531641065464024 ], [ 36.661979640267177, -0.532670199899879 ], [ 36.662219966079626, -0.533414661674623 ], [ 36.662944759374554, -0.535056770167652 ], [ 36.663928951604866, -0.536655246721023 ], [ 36.665088618180697, -0.53814411199687 ], [ 36.6655921590337, -0.538779139596987 ], [ 36.666370357263695, -0.539873898140768 ], [ 36.666852915714067, -0.541652112509563 ], [ 36.667079890094215, -0.543223976631125 ], [ 36.667365993101896, -0.54519456560696 ], [ 36.667827570769205, -0.546836792328123 ], [ 36.668067896939412, -0.547625005527624 ], [ 36.668262446832749, -0.548676014119552 ], [ 36.66822048452822, -0.549661219024061 ], [ 36.668109858869535, -0.550668537909345 ], [ 36.667758906369237, -0.552354514990291 ], [ 36.667388880422195, -0.554215669649583 ], [ 36.66719051738054, -0.55537617205916 ], [ 36.666973079421837, -0.556470931227221 ], [ 36.667125667047976, -0.557916104833681 ], [ 36.667583430792092, -0.559689640948353 ], [ 36.667999233062694, -0.561506986998322 ], [ 36.668395961059126, -0.563368142147563 ], [ 36.668590510686222, -0.565448224813507 ], [ 36.668724024623394, -0.567199886581977 ], [ 36.668460811054011, -0.56921428439935 ], [ 36.668418849009626, -0.571057021729573 ], [ 36.668788875015402, -0.57195127011901 ], [ 36.669532741519987, -0.572673857654273 ], [ 36.67014690665745, -0.573177456536451 ], [ 36.670890773294801, -0.573681055633395 ], [ 36.67264171873741, -0.574491202566935 ], [ 36.674373591818664, -0.574994862159426 ], [ 36.676147425912717, -0.575651704891379 ], [ 36.677734339933743, -0.57640707567949 ], [ 36.678707087817841, -0.576806961545653 ], [ 36.678314173741029, -0.578301013388186 ], [ 36.678050960214065, -0.580096542849003 ], [ 36.677921260140415, -0.581848204257928 ], [ 36.677745784148634, -0.584015906071323 ], [ 36.677820171236355, -0.585986553985953 ], [ 36.678314174209241, -0.587628722218912 ], [ 36.679321254032729, -0.589161455459053 ], [ 36.680372203018102, -0.590967893082761 ], [ 36.680942500449731, -0.59242391601681 ], [ 36.681598627171866, -0.594109892253795 ], [ 36.682388270782013, -0.596157162766376 ], [ 36.683261835353903, -0.59752565625447 ], [ 36.683986628800596, -0.59822630862321 ], [ 36.687335932147988, -0.601620196532636 ], [ 36.687881434784806, -0.602298914709611 ], [ 36.688320124063857, -0.603306173317598 ], [ 36.688869441200865, -0.605101584412277 ], [ 36.689720119291394, -0.60676568631844 ], [ 36.690597499421443, -0.608232737043413 ], [ 36.693712200022091, -0.612695514882769 ], [ 36.695983852153141, -0.615699231583266 ], [ 36.698787653600633, -0.619421481982653 ], [ 36.699356044531278, -0.620100199641763 ], [ 36.700839960696484, -0.621598600628284 ], [ 36.702156032419687, -0.622657776464685 ], [ 36.704017604054862, -0.624126971075262 ], [ 36.705009425109381, -0.624895750900177 ], [ 36.705718958851008, -0.625236093740686 ], [ 36.706134760574997, -0.624434470677906 ], [ 36.706649744979444, -0.623457490948613 ], [ 36.706989253193761, -0.622811555675874 ], [ 36.70724483817137, -0.621974408759646 ], [ 36.707572901507454, -0.621120273555413 ], [ 36.707843744843913, -0.620317340038963 ], [ 36.708099329541319, -0.619343518792572 ], [ 36.708339656314202, -0.618489325270553 ], [ 36.708457911691902, -0.617618083199722 ], [ 36.708492243246845, -0.61667847649257 ], [ 36.708221400120948, -0.615926742001233 ], [ 36.707828486435687, -0.614935935110632 ], [ 36.707366908761671, -0.614047526963255 ], [ 36.707210505619472, -0.61321044006519 ], [ 36.707298243687582, -0.612134218168471 ], [ 36.707279170259561, -0.61122870432948 ], [ 36.707416499876537, -0.610152363414338 ], [ 36.707553828164073, -0.609264076301864 ], [ 36.708064998389304, -0.608341575190346 ], [ 36.708579982505256, -0.60767531351422 ], [ 36.709278070828098, -0.606889426816985 ], [ 36.709930384096296, -0.606103538746111 ], [ 36.71030422584635, -0.605693578758846 ], [ 36.70979305577508, -0.605300605380668 ], [ 36.709331477282468, -0.604343950688334 ], [ 36.708972895897688, -0.60352391062436 ], [ 36.708511317054665, -0.602669716590677 ], [ 36.708167994879311, -0.601849674780297 ], [ 36.707775080770119, -0.600893021336931 ], [ 36.707382167545134, -0.600021719689604 ], [ 36.707195246421527, -0.599030852604306 ], [ 36.707111323410572, -0.598039984808031 ], [ 36.707127787463818, -0.59794447134029 ], [ 36.713462566921393, -0.610611827366358 ], [ 36.724524755130595, -0.614970927767388 ], [ 36.712978708533633, -0.629055792883861 ], [ 36.703347906951535, -0.636025742674654 ], [ 36.696475642063909, -0.640510142400529 ], [ 36.683022267854575, -0.644870498251773 ], [ 36.671426080870596, -0.646267465274041 ], [ 36.662057674781927, -0.650704812061277 ], [ 36.656466631770272, -0.660979191965305 ], [ 36.654496382267041, -0.672013718448634 ], [ 36.648771747320616, -0.675596573901188 ], [ 36.641196081006242, -0.681681531059354 ], [ 36.63585075703358, -0.690576703767506 ], [ 36.632729713556209, -0.702742345961723 ], [ 36.628243815659907, -0.715112940559876 ], [ 36.621844615458542, -0.718221439157302 ], [ 36.61741031983172, -0.726902613406097 ], [ 36.607698417300846, -0.739635670111761 ], [ 36.597149738288266, -0.747278654657847 ], [ 36.58943723745049, -0.730757587154845 ], [ 36.582218033869431, -0.727623081458213 ], [ 36.571390628956614, -0.722806364488501 ], [ 36.564190782397986, -0.718288381748522 ], [ 36.557036025724202, -0.710542540634386 ], [ 36.551029125066734, -0.701895668367529 ], [ 36.543689622191927, -0.691148100219384 ], [ 36.532936925601909, -0.68102849596409 ], [ 36.53102389269953, -0.671766927477951 ], [ 36.525496133266536, -0.661284951771057 ], [ 36.524318643048474, -0.648116449046292 ], [ 36.523358014938331, -0.635644555455592 ], [ 36.517980084403909, -0.630700224413048 ], [ 36.509859794513275, -0.627087897045117 ], [ 36.502508826640096, -0.633407260912994 ], [ 36.499475375830663, -0.639346781796638 ], [ 36.492130636612792, -0.645204834142495 ], [ 36.484377426766102, -0.6478267411972 ], [ 36.473246321781644, -0.648539719324818 ], [ 36.4614541250995, -0.647856463479625 ], [ 36.449681528883993, -0.645790133593426 ], [ 36.442145785292098, -0.649107445051664 ], [ 36.439128342916945, -0.653893544125192 ], [ 36.438331497513055, -0.662181024975926 ], [ 36.432377350385195, -0.665989342120384 ], [ 36.423648717072446, -0.673435041246986 ], [ 36.415785980032481, -0.68389485279817 ], [ 36.403060996208971, -0.701181344183704 ], [ 36.389407786426069, -0.70081754707394 ], [ 36.379643583452491, -0.69918391365399 ], [ 36.371674590881696, -0.689468465515827 ], [ 36.372244124948772, -0.674474629979519 ], [ 36.389784229688694, -0.660805205013336 ], [ 36.396463979411898, -0.65378211939852 ], [ 36.404712320424679, -0.648172292834303 ], [ 36.413395407943156, -0.643954315439502 ], [ 36.423040571434122, -0.635833566839189 ], [ 36.42899789726259, -0.631794534139933 ], [ 36.431366981681499, -0.624690101678669 ], [ 36.43014095196034, -0.614981188936347 ], [ 36.427547026948652, -0.605707730626998 ], [ 36.423665897661159, -0.591106130100866 ], [ 36.419586509071003, -0.574425769039714 ], [ 36.411631117344854, -0.559056109534967 ], [ 36.413302771711635, -0.553091295159576 ], [ 36.413447224054096, -0.542716479444012 ], [ 36.411725039667807, -0.535996643595525 ], [ 36.410054573289052, -0.525587824338877 ], [ 36.404424066213672, -0.522484283450348 ], [ 36.402970524307548, -0.512771550285452 ], [ 36.398068891799568, -0.506222810355542 ], [ 36.395305103848152, -0.492795647591169 ], [ 36.391624369601665, -0.480043313475915 ], [ 36.387278774010667, -0.466125768457126 ], [ 36.38834900156597, -0.454384697213381 ], [ 36.379245098622704, -0.439917534649343 ], [ 36.378506841205876, -0.427681358047326 ], [ 36.374707273914886, -0.423459667264098 ], [ 36.369335784217661, -0.418055435357063 ], [ 36.363734322162401, -0.41287788786362 ], [ 36.362018059014119, -0.405697213428541 ], [ 36.360302040201404, -0.398516523308975 ], [ 36.356789699703, -0.389919129221157 ], [ 36.350309355929177, -0.382649774480019 ], [ 36.350197136550491, -0.37434587054034 ], [ 36.349189657457487, -0.365103348308557 ], [ 36.343364313876407, -0.359691035503133 ], [ 36.345961666146806, -0.352360303288535 ], [ 36.339969749051825, -0.342563805932266 ], [ 36.335300746305229, -0.335558960067112 ], [ 36.333663618170512, -0.32261518705215 ], [ 36.3317358294671, -0.314278066747179 ], [ 36.331702572130617, -0.300210899991472 ], [ 36.328441905464302, -0.289773599289638 ], [ 36.322043363662047, -0.27651126246467 ], [ 36.320213475679907, -0.261027250553039 ], [ 36.31651158731303, -0.24965967225559 ], [ 36.315327229600911, -0.236724629901257 ], [ 36.311436291428926, -0.222586748071411 ], [ 36.302150933677467, -0.204659241833044 ], [ 36.293281412882351, -0.189507411663197 ], [ 36.283709413165909, -0.175956478201879 ], [ 36.274858678879625, -0.159421787108745 ], [ 36.265399936446926, -0.154174208967125 ], [ 36.261410912551334, -0.14718346571768 ], [ 36.257875592928883, -0.140200693248642 ], [ 36.262267143863028, -0.134286275653602 ], [ 36.26940441775568, -0.125167946029907 ], [ 36.277101700926764, -0.128677952059782 ], [ 36.282522095877269, -0.135627274421839 ], [ 36.292487499990905, -0.138692759186723 ], [ 36.29927780384903, -0.142426847294564 ], [ 36.308779324184101, -0.149174984853391 ], [ 36.315774521493935, -0.160282393261051 ], [ 36.326865828428893, -0.166120621886268 ], [ 36.328410210230324, -0.180644962239545 ], [ 36.333834707102184, -0.186212606578824 ], [ 36.339468842547355, -0.197541099119849 ], [ 36.347366765201947, -0.210037740706477 ], [ 36.352820994347617, -0.205469268902188 ], [ 36.355341371967079, -0.196502684125787 ], [ 36.365803517994742, -0.185058594348592 ], [ 36.376483618548804, -0.176610777598107 ], [ 36.389188409230712, -0.173476000909367 ], [ 36.400080740891127, -0.170097888043404 ], [ 36.413251152135189, -0.16281935992399 ], [ 36.422556578459663, -0.159429755075343 ], [ 36.436613816087288, -0.159299374500951 ], [ 36.445432036182339, -0.167425839465402 ], [ 36.450403890738002, -0.172990657509207 ], [ 36.451053043790054, -0.183593343266455 ], [ 36.450795069300476, -0.194189600380445 ], [ 36.453042124409372, -0.201117439505882 ], [ 36.458697817291949, -0.20530495681817 ], [ 36.470705056041552, -0.208385963709783 ], [ 36.487036052004619, -0.206198706934511 ], [ 36.500420329076896, -0.203759953844744 ], [ 36.511755547544908, -0.204301749994855 ], [ 36.518098879078693, -0.205959887137069 ], [ 36.523753207257649, -0.210838815933936 ], [ 36.538201594602, -0.213354099034476 ], [ 36.545735454717814, -0.214682502515433 ], [ 36.55391401390078, -0.222775645889311 ], [ 36.560117680629588, -0.227708245873895 ], [ 36.568724071348221, -0.23628756428574 ], [ 36.575609098703183, -0.241620150382778 ], [ 36.581920427549271, -0.246508172447587 ], [ 36.587116280458531, -0.252997104464788 ], [ 36.603439712864578, -0.253805501451885 ], [ 36.614530821608518, -0.256140583877336 ], [ 36.620811144331888, -0.268438904510209 ], [ 36.620499168685662, -0.274660709781817 ], [ 36.625825344441331, -0.283523498489306 ], [ 36.625898385436706, -0.284874503887313 ], [ 36.624551101801465, -0.287319321710461 ], [ 36.622196161816206, -0.291593552644545 ], [ 36.62067028344417, -0.294391512728571 ], [ 36.618980373388837, -0.29728284530113 ], [ 36.617588007679501, -0.299669474400643 ], [ 36.616981471026357, -0.300909488681536 ], [ 36.616062129160063, -0.302562891639808 ], [ 36.61520382229763, -0.30418434699912 ], [ 36.614250147777959, -0.305869608931899 ], [ 36.613803828006326, -0.306855201902465 ], [ 36.613311732720057, -0.308017403119945 ], [ 36.612945521766029, -0.309303342608304 ], [ 36.612752878719419, -0.310289054392021 ], [ 36.612689937302271, -0.311624451450688 ], [ 36.612819636963451, -0.312928051234893 ], [ 36.612945521574062, -0.313818305381641 ], [ 36.613136255467126, -0.314931095059216 ], [ 36.613136255225008, -0.31593269051278 ], [ 36.612789119172277, -0.317197888492319 ], [ 36.612338985066344, -0.318015217178394 ], [ 36.611862148454982, -0.31861939994284 ], [ 36.611038172867602, -0.319891185110656 ], [ 36.610115015825919, -0.321321904777672 ], [ 36.609573328842352, -0.322339356104485 ], [ 36.608905756228616, -0.323801964430531 ], [ 36.608499492249095, -0.324721977176706 ], [ 36.608333553273653, -0.325582473681176 ], [ 36.608112299903077, -0.326949655304889 ], [ 36.607891048033707, -0.327839910961621 ], [ 36.607412303358359, -0.329684033519479 ], [ 36.607284510624417, -0.33114659797783 ], [ 36.607349360800598, -0.332259416296544 ], [ 36.607475246001478, -0.33381742242242 ], [ 36.607826197357795, -0.337314843876989 ], [ 36.60814281750163, -0.338872789962659 ], [ 36.608367884201819, -0.340557902441286 ], [ 36.608810390084656, -0.342179476224035 ], [ 36.609161341705388, -0.343276411118735 ], [ 36.60966869734392, -0.344150781253771 ], [ 36.610305751274112, -0.345104664564415 ], [ 36.611164057864372, -0.346853345793344 ], [ 36.612022364841813, -0.348188727828262 ], [ 36.612880671800248, -0.34987389944541 ], [ 36.614042247043685, -0.35151132903907 ], [ 36.614566768005005, -0.352735489791786 ], [ 36.614852870390386, -0.353530377246377 ], [ 36.614313091421039, -0.354372903707826 ], [ 36.613643610903296, -0.354929298350817 ], [ 36.6125640522434, -0.355819612410134 ], [ 36.611038173282864, -0.356964171377827 ], [ 36.609733545748206, -0.358267783919808 ], [ 36.608493769558642, -0.359030842545626 ], [ 36.606712305749525, -0.360461651741405 ], [ 36.605377161950351, -0.361638098649875 ], [ 36.604816401607806, -0.362279980533588 ], [ 36.604263271042839, -0.362909912964006 ], [ 36.603118860656139, -0.364372462360012 ], [ 36.602676356793857, -0.36507198227034 ], [ 36.602374994807427, -0.365882276985193 ], [ 36.602165186500301, -0.367710977510475 ], [ 36.602134669586874, -0.368664801719795 ], [ 36.602134670302618, -0.369523317105557 ], [ 36.602199519210551, -0.370349914189026 ], [ 36.602659190610886, -0.371558129875062 ], [ 36.603309595440791, -0.372543781316458 ], [ 36.603946650671894, -0.373275041962742 ], [ 36.605138743971196, -0.374165401118584 ], [ 36.606380427885419, -0.374674066517069 ], [ 36.607379877751193, -0.37492841468253 ], [ 36.608207667839203, -0.375119178974847 ], [ 36.609382593964071, -0.375182806964098 ], [ 36.610240900755144, -0.375214546313752 ], [ 36.611068690887969, -0.375246345923642 ], [ 36.612674677487043, -0.375627934946534 ], [ 36.614471400926888, -0.376343324093517 ], [ 36.616157496426695, -0.377376734706243 ], [ 36.617111170738113, -0.378266931123576 ], [ 36.617969477747003, -0.379125356636977 ], [ 36.619174921957544, -0.379793107383221 ], [ 36.620529139805697, -0.380031541625699 ], [ 36.621545756298467, -0.380365416010717 ], [ 36.622722591035192, -0.380874097172216 ], [ 36.623596155667293, -0.381414533557822 ], [ 36.624866451480379, -0.382241279232931 ], [ 36.626777613817602, -0.383258729638276 ], [ 36.627475702940522, -0.383672029709734 ], [ 36.628644908209864, -0.384535491129326 ], [ 36.629350628356868, -0.385118722810688 ], [ 36.63001819964186, -0.386295228775337 ], [ 36.630006754362348, -0.38743519752303 ], [ 36.629478420263148, -0.388441353757625 ], [ 36.624294245518215, -0.394482403893117 ], [ 36.622802698303332, -0.396390109685775 ], [ 36.621385539412941, -0.398234188532083 ], [ 36.621262324884412, -0.39911813792354 ], [ 36.621593439760922, -0.399982928672853 ], [ 36.622584012171352, -0.401186008754827 ], [ 36.622928584064866, -0.401604502472763 ] ] ] ] } }
]
}
